start=new Date('2022-07-01T00:00:00.000Z').valueOf();
sats=[{"TLE_LINE1":"1 52659U 22053D   22181.91667824 -.00716324  00000-0 -22480-1 0  9998","DECAY_DATE":null,"OBJECT_ID":"2022-053D","APOAPSIS":"461.760","PERIOD":"93.808","ELEMENT_SET_NO":"999","INCLINATION":"53.2175","EPOCH":"2022-06-30T22:00:00.999936","MEAN_MOTION_DOT":"-0.00716324","COUNTRY_CODE":"US","BSTAR":"-0.02248000000000","MEAN_ELEMENT_THEORY":"SGP4","OBJECT_NAME":"STARLINK-3960","EPHEMERIS_TYPE":"0","TIME_SYSTEM":"UTC","GP_ID":"207179697","PERIAPSIS":"459.763","ARG_OF_PERICENTER":"51.0441","REV_AT_EPOCH":"130","LAUNCH_DATE":"2022-05-18","CLASSIFICATION_TYPE":"U","MEAN_MOTION":"15.35054058","TLE_LINE2":"2 52659  53.2175  86.1902 0001460  51.0441 260.5335 15.35054058  1308","RA_OF_ASC_NODE":"86.1902","ECCENTRICITY":"0.00014600","FILE":"3505946","REF_FRAME":"TEME","MEAN_ANOMALY":"260.5335","CENTER_NAME":"EARTH","NORAD_CAT_ID":"52659","RCS_SIZE":"MEDIUM","SITE":"AFETR","SEMIMAJOR_AXIS":"6838.897","OBJECT_TYPE":"PAYLOAD","MEAN_MOTION_DDOT":"0.0000000000000"},{"TLE_LINE2":"2 52660  53.2175  86.2100 0001536  45.6296 283.6666 15.35496008  1300","MEAN_MOTION":"15.35496008","RA_OF_ASC_NODE":"86.2100","CLASSIFICATION_TYPE":"U","LAUNCH_DATE":"2022-05-18","ARG_OF_PERICENTER":"45.6296","REV_AT_EPOCH":"130","MEAN_ANOMALY":"283.6666","CENTER_NAME":"EARTH","FILE":"3505946","REF_FRAME":"TEME","ECCENTRICITY":"0.00015360","OBJECT_TYPE":"PAYLOAD","SEMIMAJOR_AXIS":"6837.585","SITE":"AFETR","RCS_SIZE":"LARGE","NORAD_CAT_ID":"52660","MEAN_MOTION_DDOT":"0.0000000000000","OBJECT_ID":"2022-053E","APOAPSIS":"460.500","PERIOD":"93.781","TLE_LINE1":"1 52660U 22053E   22181.91667824 -.00717120  00000-0 -22189-1 0  9991","DECAY_DATE":null,"EPOCH":"2022-06-30T22:00:00.999936","INCLINATION":"53.2175","ELEMENT_SET_NO":"999","MEAN_MOTION_DOT":"-0.00717120","PERIAPSIS":"458.399","EPHEMERIS_TYPE":"0","TIME_SYSTEM":"UTC","OBJECT_NAME":"STARLINK-4081","GP_ID":"207179950","BSTAR":"-0.02218900000000","MEAN_ELEMENT_THEORY":"SGP4","COUNTRY_CODE":"US"},{"MEAN_ELEMENT_THEORY":"SGP4","BSTAR":"-0.02205400000000","COUNTRY_CODE":"US","PERIAPSIS":"457.946","GP_ID":"207180151","EPHEMERIS_TYPE":"0","TIME_SYSTEM":"UTC","OBJECT_NAME":"STARLINK-4042","MEAN_MOTION_DOT":"-0.00717285","ELEMENT_SET_NO":"999","EPOCH":"2022-06-30T22:00:00.999936","INCLINATION":"53.2176","PERIOD":"93.769","OBJECT_ID":"2022-053F","APOAPSIS":"459.776","DECAY_DATE":null,"TLE_LINE1":"1 52661U 22053F   22181.91667824 -.00717285  00000-0 -22054-1 0  9995","MEAN_MOTION_DDOT":"0.0000000000000","SITE":"AFETR","RCS_SIZE":"LARGE","NORAD_CAT_ID":"52661","OBJECT_TYPE":"PAYLOAD","SEMIMAJOR_AXIS":"6836.996","ECCENTRICITY":"0.00013380","MEAN_ANOMALY":"279.1629","CENTER_NAME":"EARTH","REF_FRAME":"TEME","FILE":"3505946","REV_AT_EPOCH":"130","ARG_OF_PERICENTER":"57.6465","RA_OF_ASC_NODE":"86.2187","TLE_LINE2":"2 52661  53.2176  86.2187 0001338  57.6465 279.1629 15.35694354  1301","MEAN_MOTION":"15.35694354","LAUNCH_DATE":"2022-05-18","CLASSIFICATION_TYPE":"U"},{"MEAN_MOTION_DOT":"-0.00717977","PERIAPSIS":"456.635","EPHEMERIS_TYPE":"0","TIME_SYSTEM":"UTC","OBJECT_NAME":"STARLINK-4044","GP_ID":"207179496","BSTAR":"-0.02179500000000","MEAN_ELEMENT_THEORY":"SGP4","COUNTRY_CODE":"US","APOAPSIS":"458.732","OBJECT_ID":"2022-053G","PERIOD":"93.744","TLE_LINE1":"1 52662U 22053G   22181.91667824 -.00717977  00000-0 -21795-1 0  9995","DECAY_DATE":null,"EPOCH":"2022-06-30T22:00:00.999936","INCLINATION":"53.2176","ELEMENT_SET_NO":"999","OBJECT_TYPE":"PAYLOAD","SEMIMAJOR_AXIS":"6835.818","RCS_SIZE":"LARGE","SITE":"AFETR","NORAD_CAT_ID":"52662","MEAN_MOTION_DDOT":"0.0000000000000","MEAN_MOTION":"15.36091166","TLE_LINE2":"2 52662  53.2176  86.2366 0001534  43.7596 307.7989 15.36091166  1300","RA_OF_ASC_NODE":"86.2366","CLASSIFICATION_TYPE":"U","LAUNCH_DATE":"2022-05-18","ARG_OF_PERICENTER":"43.7596","REV_AT_EPOCH":"130","CENTER_NAME":"EARTH","MEAN_ANOMALY":"307.7989","FILE":"3505946","REF_FRAME":"TEME","ECCENTRICITY":"0.00015340"},{"MEAN_MOTION_DDOT":"0.0000000000000","SITE":"AFETR","RCS_SIZE":"LARGE","NORAD_CAT_ID":"52663","OBJECT_TYPE":"PAYLOAD","SEMIMAJOR_AXIS":"6835.230","ECCENTRICITY":"0.00015400","MEAN_ANOMALY":"315.7417","CENTER_NAME":"EARTH","FILE":"3505946","REF_FRAME":"TEME","ARG_OF_PERICENTER":"43.0527","REV_AT_EPOCH":"130","MEAN_MOTION":"15.36289484","TLE_LINE2":"2 52663  53.2177  86.2451 0001540  43.0527 315.7417 15.36289484  1308","RA_OF_ASC_NODE":"86.2451","LAUNCH_DATE":"2022-05-18","CLASSIFICATION_TYPE":"U","BSTAR":"-0.02166200000000","MEAN_ELEMENT_THEORY":"SGP4","COUNTRY_CODE":"US","PERIAPSIS":"456.042","EPHEMERIS_TYPE":"0","OBJECT_NAME":"STARLINK-4037","TIME_SYSTEM":"UTC","GP_ID":"207180051","MEAN_MOTION_DOT":"-0.00718174","ELEMENT_SET_NO":"999","EPOCH":"2022-06-30T22:00:00.999936","INCLINATION":"53.2177","OBJECT_ID":"2022-053H","APOAPSIS":"458.148","PERIOD":"93.732","TLE_LINE1":"1 52663U 22053H   22181.91667824 -.00718174  00000-0 -21662-1 0  9999","DECAY_DATE":null},{"ECCENTRICITY":"0.00015370","FILE":"3505946","REF_FRAME":"TEME","MEAN_ANOMALY":"300.1703","CENTER_NAME":"EARTH","ARG_OF_PERICENTER":"44.0599","REV_AT_EPOCH":"130","CLASSIFICATION_TYPE":"U","LAUNCH_DATE":"2022-05-18","TLE_LINE2":"2 52664  53.2176  86.2277 0001537  44.0599 300.1703 15.35892831  1301","MEAN_MOTION":"15.35892831","RA_OF_ASC_NODE":"86.2277","MEAN_MOTION_DDOT":"0.0000000000000","NORAD_CAT_ID":"52664","SITE":"AFETR","RCS_SIZE":"LARGE","SEMIMAJOR_AXIS":"6836.407","OBJECT_TYPE":"PAYLOAD","ELEMENT_SET_NO":"999","INCLINATION":"53.2176","EPOCH":"2022-06-30T22:00:00.999936","TLE_LINE1":"1 52664U 22053J   22181.91667824 -.00717761  00000-0 -21928-1 0  9996","DECAY_DATE":null,"OBJECT_ID":"2022-053J","APOAPSIS":"459.323","PERIOD":"93.757","COUNTRY_CODE":"US","BSTAR":"-0.02192800000000","MEAN_ELEMENT_THEORY":"SGP4","OBJECT_NAME":"STARLINK-4070","EPHEMERIS_TYPE":"0","TIME_SYSTEM":"UTC","GP_ID":"207179597","PERIAPSIS":"457.221","MEAN_MOTION_DOT":"-0.00717761"},{"MEAN_MOTION_DDOT":"0.0000000000000","NORAD_CAT_ID":"52665","SITE":"AFETR","RCS_SIZE":"MEDIUM","SEMIMAJOR_AXIS":"6833.492","OBJECT_TYPE":"PAYLOAD","ECCENTRICITY":"0.00017820","REF_FRAME":"TEME","FILE":"3505946","MEAN_ANOMALY":"346.5295","CENTER_NAME":"EARTH","REV_AT_EPOCH":"130","ARG_OF_PERICENTER":"33.9936","CLASSIFICATION_TYPE":"U","LAUNCH_DATE":"2022-05-18","RA_OF_ASC_NODE":"86.2698","TLE_LINE2":"2 52665  53.2177  86.2698 0001782  33.9936 346.5295 15.36875687  1305","MEAN_MOTION":"15.36875687","COUNTRY_CODE":"US","MEAN_ELEMENT_THEORY":"SGP4","BSTAR":"-0.02127100000000","GP_ID":"207180200","EPHEMERIS_TYPE":"0","OBJECT_NAME":"STARLINK-4064","TIME_SYSTEM":"UTC","PERIAPSIS":"454.139","MEAN_MOTION_DOT":"-0.00718741","ELEMENT_SET_NO":"999","INCLINATION":"53.2177","EPOCH":"2022-06-30T22:00:00.999936","DECAY_DATE":null,"TLE_LINE1":"1 52665U 22053K   22181.91667824 -.00718741  00000-0 -21271-1 0  9997","PERIOD":"93.697","OBJECT_ID":"2022-053K","APOAPSIS":"456.575"},{"SEMIMAJOR_AXIS":"6834.642","OBJECT_TYPE":"PAYLOAD","NORAD_CAT_ID":"52666","RCS_SIZE":"LARGE","SITE":"AFETR","MEAN_MOTION_DDOT":"0.0000000000000","LAUNCH_DATE":"2022-05-18","CLASSIFICATION_TYPE":"U","RA_OF_ASC_NODE":"86.2539","MEAN_MOTION":"15.36487831","TLE_LINE2":"2 52666  53.2177  86.2539 0001707  36.2019 329.7359 15.36487831  1309","REV_AT_EPOCH":"130","ARG_OF_PERICENTER":"36.2019","REF_FRAME":"TEME","FILE":"3505946","CENTER_NAME":"EARTH","MEAN_ANOMALY":"329.7359","ECCENTRICITY":"0.00017070","MEAN_MOTION_DOT":"-0.00718437","GP_ID":"207179849","TIME_SYSTEM":"UTC","EPHEMERIS_TYPE":"0","OBJECT_NAME":"STARLINK-4079","PERIAPSIS":"455.340","COUNTRY_CODE":"US","MEAN_ELEMENT_THEORY":"SGP4","BSTAR":"-0.02153100000000","DECAY_DATE":null,"TLE_LINE1":"1 52666U 22053L   22181.91667824 -.00718437  00000-0 -21531-1 0  9999","PERIOD":"93.720","OBJECT_ID":"2022-053L","APOAPSIS":"457.673","INCLINATION":"53.2177","EPOCH":"2022-06-30T22:00:00.999936","ELEMENT_SET_NO":"999"},{"COUNTRY_CODE":"US","BSTAR":"-0.02113100000000","MEAN_ELEMENT_THEORY":"SGP4","EPHEMERIS_TYPE":"0","TIME_SYSTEM":"UTC","OBJECT_NAME":"STARLINK-4076","GP_ID":"207179698","PERIAPSIS":"453.817","MEAN_MOTION_DOT":"-0.00718580","ELEMENT_SET_NO":"999","INCLINATION":"53.2177","EPOCH":"2022-06-30T22:00:00.999936","TLE_LINE1":"1 52667U 22053M   22181.91667824 -.00718580  00000-0 -21131-1 0  9995","DECAY_DATE":null,"OBJECT_ID":"2022-053M","APOAPSIS":"455.722","PERIOD":"93.685","MEAN_MOTION_DDOT":"0.0000000000000","NORAD_CAT_ID":"52667","SITE":"AFETR","RCS_SIZE":"LARGE","SEMIMAJOR_AXIS":"6832.905","OBJECT_TYPE":"PAYLOAD","ECCENTRICITY":"0.00013940","FILE":"3505946","REF_FRAME":"TEME","CENTER_NAME":"EARTH","MEAN_ANOMALY":"336.1979","ARG_OF_PERICENTER":"51.1955","REV_AT_EPOCH":"130","CLASSIFICATION_TYPE":"U","LAUNCH_DATE":"2022-05-18","MEAN_MOTION":"15.37073830","TLE_LINE2":"2 52667  53.2177  86.2783 0001394  51.1955 336.1979 15.37073830  1309","RA_OF_ASC_NODE":"86.2783"},{"GP_ID":"207179951","EPHEMERIS_TYPE":"0","OBJECT_NAME":"STARLINK-4067","TIME_SYSTEM":"UTC","PERIAPSIS":"454.935","COUNTRY_CODE":"US","MEAN_ELEMENT_THEORY":"SGP4","BSTAR":"-0.02139600000000","MEAN_MOTION_DOT":"-0.00718493","INCLINATION":"53.2177","EPOCH":"2022-06-30T22:00:00.999936","ELEMENT_SET_NO":"999","DECAY_DATE":null,"TLE_LINE1":"1 52668U 22053N   22181.91667824 -.00718493  00000-0 -21396-1 0  9992","PERIOD":"93.708","OBJECT_ID":"2022-053N","APOAPSIS":"456.903","MEAN_MOTION_DDOT":"0.0000000000000","SEMIMAJOR_AXIS":"6834.054","OBJECT_TYPE":"PAYLOAD","NORAD_CAT_ID":"52668","SITE":"AFETR","RCS_SIZE":"LARGE","REF_FRAME":"TEME","FILE":"3505946","MEAN_ANOMALY":"324.6902","CENTER_NAME":"EARTH","ECCENTRICITY":"0.00014400","CLASSIFICATION_TYPE":"U","LAUNCH_DATE":"2022-05-18","RA_OF_ASC_NODE":"86.2625","MEAN_MOTION":"15.36686090","TLE_LINE2":"2 52668  53.2177  86.2625 0001440  48.2987 324.6902 15.36686090  1304","REV_AT_EPOCH":"130","ARG_OF_PERICENTER":"48.2987"}];
